TIANWANG 1C (TW-1C)     
1 40926U 15051B   17211.89146991  .00005226  00000-0  11929-3 0  9992
2 40926  97.2260 251.1201 0011832  20.6064 333.6264 15.43245143103658
TIANWANG 1B (TW-1B)     
1 40927U 15051C   17211.88689991  .00005093  00000-0  12069-3 0  9992
2 40927  97.2354 251.1144 0012234  29.8766  95.1498 15.42127608103604
TIANWANG 1A (TW-1A)     
1 40928U 15051D   17211.86532719  .00002501  00000-0  72544-4 0  9992
2 40928  97.2237 246.8951 0013950  46.8622  74.5724 15.36370361103408
LAPAN-A2 (IO-86)        
1 40931U 15052B   17210.73142518  .00000642  00000-0  38401-6 0  9996
2 40931   6.0007 289.4111 0012806 124.5148 235.6689 14.76533971 99261
LQSAT                   
1 40958U 15057A   17211.92759567  .00000006  00000-0  87359-5 0  9999
2 40958  97.9760 286.4788 0017007 288.1506  71.7840 14.72974671 97566
CHUBUSAT-2              
1 41338U 16012B   17211.34717636  .00000262  00000-0  13857-4 0  9996
2 41338  31.0021 198.1443 0013938 127.0303 233.1609 14.99764109 79479
CHUBUSAT-3              
1 41339U 16012C   17211.33605048  .00000249  00000-0  12760-4 0  9996
2 41339  31.0099 197.2924 0013657 134.2108 225.9660 14.99967724 79452
OUFTI-1                 
1 41458U 16025C   17211.91136723  .00001638  00000-0  90623-4 0  9992
2 41458  98.1839 251.9919 0175485 143.2565 218.0841 15.03306641 69158
E-ST@R-II               
1 41459U 16025D   17211.93702575  .00001599  00000-0  89090-4 0  9991
2 41459  98.1795 251.9608 0175371 143.6498 217.6790 15.03115624 69144
AAUSAT 4                
1 41460U 16025E   17211.77505861  .00002081  00000-0  11416-3 0  9997
2 41460  98.1769 251.9200 0168708 142.0652 219.2572 15.04067912 69149
NUSAT 1 (LO-87)         
1 41557U 16033B   17211.78486439  .00000886  00000-0  36014-4 0  9996
2 41557  97.4617 291.3019 0013473 207.6625 152.3898 15.27158451 65083
BEESAT-4                
1 41619U 16040W   17211.74854365  .00000997  00000-0  48233-4 0  9995
2 41619  97.4593 273.7114 0010365 276.7770  83.2286 15.20873930 49219
PRATHAM                 
1 41783U 16059A   17211.93740467  .00000005  00000-0  10439-4 0  9992
2 41783  98.1637 272.8512 0034142  25.9175 334.3728 14.62846830 44997
ALSAT 1N                
1 41789U 16059G   17211.88973510  .00000064  00000-0  21484-4 0  9996
2 41789  98.1645 273.3891 0028982  20.4565 339.7780 14.64060552 45007
NAYIF-1 (EO-88)         
1 42017U 17008BX  17211.86234144  .00001174  00000-0  52777-4 0  9999
2 42017  97.4921 273.2303 0008192  73.7558 286.4579 15.23109701 25134
LILACSAT-1              
1 42725U 98067ME  17211.39010680  .00008776  00000-0  13101-3 0  9996
2 42725  51.6390 182.3927 0007578 105.0227 255.1604 15.55884839 10204
MAX VALIER SAT          
1 42778U 17036P   17211.72033965  .00000765  00000-0  38212-4 0  9990
2 42778  97.4487 271.0409 0014579 112.6404 247.6375 15.20401335  5649
